1 44239U 19029E   20159.16667824  .00149927  00000-0  31997-2 0  9993
2 44239  53.0061 255.7137 0001232  93.8385 212.9105 15.43857403 57487
1 44239U 19029E   20159.58334491 -.00002018  00000-0 -34616-4 0  9994
2 44239  53.0058 253.7324 0001294  87.4106  16.5224 15.43912575 57557
1 44239U 19029E   20159.58334491 -.00002018  00000-0 -34616-4 0  9994
2 44239  53.0058 253.7324 0001294  87.4106  16.5224 15.43912575 57557
1 44239U 19029E   20159.75001157  .00237752  00000-0  50127-2 0  9999
2 44239  53.0054 252.9394 0001199  79.2849 231.5438 15.43846544 57578
1 44239U 19029E   20159.91667824 -.00030157 +00000-0 -64669-3 0  9995
2 44239 053.0055 252.1452 0001110 089.9265 067.7593 15.43910860001808
1 44239U 19029E   20160.08334491  .00045773  00000-0  99594-3 0  9999
2 44239  53.0055 251.3513 0001083  97.9465 266.6231 15.43874706 57625
1 44239U 19029E   20160.33335648 -.00013492 +00000-0 -28387-3 0  9999
2 44239 053.0056 250.1618 0001245 098.4560 216.4622 15.43888096057669
1 44239U 19029E   20160.75001157  .00033885  00000-0  74092-3 0  9990
2 44239  53.0051 248.1802 0001178  85.0117  26.9958 15.43869045 57738
1 44239U 19029E   20160.91668981 -.00036527  00000-0 -78692-3 0  9990
2 44239  53.0055 247.3858 0001278  90.9398 227.9816 15.43871002 57755
1 44239U 19029E   20161.08334491  .00051486  00000-0  11198-2 0  9991
2 44239  53.0054 246.5920 0001253  96.4826  69.2321 15.43834181 57783
1 44239U 19029E   20161.16667824  .00055229  00000-0  11998-2 0  9996
2 44239  53.0054 246.1951 0001310  97.8097 171.3252 15.43838638 57792
1 44239U 19029E   20161.41668981 -.00018932  00000-0 -40249-3 0  9993
2 44239  53.0054 245.0067 0001365  92.6581 126.7987 15.43874197 57833
1 44239U 19029E   20161.58334491 +.00016219 +00000-0 +36033-3 0  9997
2 44239 053.0057 244.2142 0001343 086.9850 339.2638 15.43857070001779
1 44239U 19029E   20161.66667824  .00056117  00000-0  12187-2 0  9999
2 44239  53.0057 243.8178 0001290  84.5401  85.1388 15.43841313 57874
1 44239U 19029E   20161.91667824 -.00029003  00000-0 -62269-3 0  9990
2 44239  53.0058 242.6266 0001144  89.9729  29.9600 15.43854306 57914
1 44239U 19029E   20162.00001157  .00016265  00000-0  36162-3 0  9999
2 44239  53.0060 242.2296 0001127  92.5131 130.8458 15.43833778 57928
1 44239U 19029E   20162.16668981  .00037316  00000-0  81571-3 0  9994
2 44239  53.0057 241.4359 0001194  96.9293 333.3307 15.43830890 57954
1 44239U 19029E   20162.41668981 -.00029964  00000-0 -64349-3 0  9998
2 44239  53.0056 240.2476 0001186  89.3875 291.1196 15.43864680 57987
1 44239U 19029E   20162.50001157 -.00013151  00000-0 -27678-3 0  9999
2 44239  53.0055 239.8515 0001193  85.7806  38.0877 15.43854200 58001
1 44239U 19029E   20162.58334491 +.00036508 +00000-0 +79815-3 0  9996
2 44239 053.0058 239.4550 0001204 081.0789 146.2155 15.43837146001763
1 44239U 19029E   20162.75002315  .00010890  00000-0  24512-3 0  9992
2 44239  53.0055 238.6614 0001135  79.0740 355.1220 15.43855235 58045
1 44239U 19029E   20162.83334491 -.00027954  00000-0 -59934-3 0  9991
2 44239  53.0056 238.2644 0001126  83.1233  94.4267 15.43874958 58056
1 44239U 19029E   20162.91667824 -.00025526 +00000-0 -54637-3 0  9997
2 44239 053.0058 237.8674 0001136 086.1859 194.7906 15.43872864001768
1 44239U 19029E   20163.16667824  .00037624  00000-0  82165-3 0  9992
2 44239  53.0056 236.6769 0001140  93.4541 137.8008 15.43855497 58106
1 44239U 19029E   20163.33334491 -.00028535  00000-0 -61175-3 0  9993
2 44239  53.0055 235.8845 0001135  89.7784 348.3185 15.43888709 58132
1 44239U 19029E   20163.50004630 -.00003131 +00000-0 -58825-4 0  9995
2 44239 053.0053 235.0920 0001185 081.9344 203.2196 15.43871473001798
1 44239U 19029E   20163.58334491  .00030944  00000-0  67791-3 0  9995
2 44239  53.0054 234.6959 0001198  79.6137 308.7764 15.43857367 58165
1 44239U 19029E   20163.66667824  .00049482  00000-0  10762-2 0  9995
2 44239  53.0051 234.2992 0001152  77.3840  54.4345 15.43852223 58189
1 44239U 19029E   20163.91667824 -.00005512  00000-0 -11049-3 0  9991
2 44239  53.0053 233.1081 0001090  86.6345 355.4636 15.43883746 58228
1 44239U 19029E   20164.25001157 -.00001335  00000-0 -19844-4 0  9991
2 44239  53.0052 231.5214 0001156  92.8054  43.0017 15.43891620 58274
1 44239U 19029E   20164.33335648 -.00031082  00000-0 -66776-3 0  9992
2 44239  53.0050 231.1253 0001252  89.3322 149.9738 15.43872225 58284
1 44239U 19029E   20164.58334491  .00058416  00000-0  12684-2 0  9990
2 44239  53.0051 229.9367 0001292  80.5205 108.9984 15.43828893 58328
1 44239U 19029E   20164.66668981  .00042959  00000-0  93681-3 0  9995
2 44239  53.0048 229.5400 0001240  79.9155 213.0860 15.43836900 58337
1 44239U 19029E   20164.66668981  .00042959  00000-0  93681-3 0  9995
2 44239  53.0048 229.5400 0001240  79.9155 213.0860 15.43836900 58337
1 44239U 19029E   20164.91667824 -.00009228 +00000-0 -19134-3 0  9993
2 44239 053.0051 228.3489 0001200 088.0908 155.1099 15.43862121001767
1 44239U 19029E   20165.00001157  .00041539  00000-0  90632-3 0  9996
2 44239  53.0050 227.9519 0001178  91.8081 254.8234 15.43836254 58389
1 44239U 19029E   20165.16667824  .00032804  00000-0  71799-3 0  9990
2 44239  53.0051 227.1586 0001243  94.3693  99.0991 15.43856056 58411
1 44239U 19029E   20165.41667824 -.00019643  00000-0 -41802-3 0  9998
2 44239  53.0049 225.9702 0001207  86.0714  57.6688 15.43871956 58459
1 44239U 19029E   20165.41667824 -.00019643  00000-0 -41802-3 0  9998
2 44239  53.0049 225.9702 0001207  86.0714  57.6688 15.43871956 58459
1 44239U 19029E   20165.41667824 -.00019643  00000-0 -41802-3 0  9998
2 44239  53.0049 225.9702 0001207  86.0714  57.6688 15.43871956 58459
1 44239U 19029E   20165.50002315  .00008864  00000-0  20124-3 0  9991
2 44239  53.0052 225.5739 0001233  82.9396 164.2944 15.43858178 58461
1 44239U 19029E   20165.58334491 +.00045219 +00000-0 +98512-3 0  9993
2 44239 053.0053 225.1776 0001212 081.5058 269.0907 15.43842976001770
1 44239U 19029E   20165.66668981  .00034113  00000-0  74624-3 0  9995
2 44239  53.0050 224.7807 0001178  79.5184  14.5636 15.43851983 58496
1 44239U 19029E   20165.91667824  .00001116  00000-0  33310-4 0  9993
2 44239  53.0057 223.5894 0001108  89.8074 314.4872 15.43866786 58526
1 44239U 19029E   20166.08334491  .00050960  00000-0  11079-2 0  9990
2 44239  53.0055 222.7956 0001147  93.2036 157.9477 15.43851428 58555
1 44239U 19029E   20166.16667824  .00024738  00000-0  54398-3 0  9994
2 44239  53.0057 222.3994 0001187  93.4079 261.1632 15.43870042 58563
1 44239U 19029E   20166.25001157 -.00015965 +00000-0 -33770-3 0  9990
2 44239 053.0057 222.0032 0001210 091.4367 006.5545 15.43887296001772
1 44239U 19029E   20166.33335648 -.00032745  00000-0 -70437-3 0  9990
2 44239  53.0057 221.6072 0001314  87.4871 114.0027 15.43861966 58599
1 44239U 19029E   20166.33335648 -.00032745  00000-0 -70437-3 0  9990
2 44239  53.0057 221.6072 0001314  87.4871 114.0027 15.43861966 58599
1 44239U 19029E   20166.50001157  .00010776  00000-0  24278-3 0  9994
2 44239  53.0058 220.8149 0001342  82.3069 325.9664 15.43839800 58615
1 44239U 19029E   20166.66667824  .00021651  00000-0  47793-3 0  9991
2 44239  53.0058 220.0214 0001266  78.7754 176.3317 15.43838308 58643
1 44239U 19029E   20166.83334491 -.00030278  00000-0 -65041-3 0  9994
2 44239  53.0062 219.2272 0001262  84.0506  17.8915 15.43861898 58679
1 44239U 19029E   20166.91667824 +.00009344 +00000-0 +21175-3 0  9990
2 44239 053.0064 218.8302 0001254 086.6839 118.6849 15.43841243001764
1 44239U 19029E   20167.00001157  .00051057  00000-0  11110-2 0  9997
2 44239  53.0061 218.4334 0001265  89.4068 219.3877 15.43824102 58698
1 44239U 19029E   20167.16667824  .00076752  00000-0  16574-2 0  9991
2 44239  53.0063 217.6404 0001218  91.3627  64.2630 15.43870534 58728
1 44239U 19029E   20167.33335648 -.00033728  00000-0 -72499-3 0  9993
2 44239  53.0061 216.8481 0001204  83.6577 278.8907 15.43898481 58748
1 44239U 19029E   20167.58334491 +.00043005 +00000-0 +93694-3 0  9992
2 44239 053.0063 215.6591 0001190 074.1459 238.6426 15.43863894001778
1 44239U 19029E   20167.91667824 +.00023127 +00000-0 +50968-3 0  9998
2 44239 053.0062 214.0712 0001274 085.3726 281.1288 15.43844929001787
1 44239U 19029E   20168.16667824 -.00001160  00000-0 -16059-4 0  9995
2 44239  53.0062 212.8815 0001289  87.9541 228.8061 15.43868014 58876
1 44239U 19029E   20168.25001157 +.00012001 +00000-0 +26903-3 0  9998
2 44239 053.0059 212.4854 0001321 085.5334 334.6446 15.43869728001775
1 44239U 19029E   20168.33336806 -.00024814  00000-0 -53087-3 0  9999
2 44239  53.0057 212.0892 0001331  81.4629  82.2721 15.43869903 58908
1 44239U 19029E   20168.91667824  .00021912  00000-0  48346-3 0  9996
2 44239  53.0054 209.3124 0001238  84.8217  82.7559 15.43844784 58991
1 44239U 19029E   20169.00001157  .00047968  00000-0  10443-2 0  9993
2 44239  53.0053 208.9155 0001265  86.5992 184.4038 15.43836703 59005
1 44239U 19029E   20169.16667824 -.00005430  00000-0 -10875-3 0  9999
2 44239  53.0055 208.1227 0001317  86.7721  31.0661 15.43872014 59036
1 44239U 19029E   20169.33335648 -.00027519  00000-0 -58985-3 0  9990
2 44239  53.0050 207.3305 0001313  82.4333 242.3202 15.43873828 59051
1 44239U 19029E   20169.58334491  .00048491  00000-0  10553-2 0  9990
2 44239  53.0049 206.1413 0001305  76.6578 198.3113 15.43842932 59090
1 44239U 19029E   20169.66667824 -.00006109  00000-0 -12350-3 0  9998
2 44239  53.0048 205.7443 0001292  76.9858 301.3996 15.43869500 59103
1 44239U 19029E   20169.91668981 +.00030518 +00000-0 +66903-3 0  9993
2 44239 053.0051 204.5533 0001234 087.1534 241.5838 15.43844909001760
1 44239U 19029E   20170.16667824 -.00009540  00000-0 -19802-3 0  9996
2 44239  53.0051 203.3638 0001293  88.3767 190.5587 15.43879319 59185
1 44239U 19029E   20170.33335648 -.00025719  00000-0 -55047-3 0  9998
2 44239  53.0047 202.5715 0001264  82.0743  43.7822 15.43878091 59211
1 44239U 19029E   20170.50002315  .00040808  00000-0  89025-3 0  9996
2 44239  53.0050 201.7789 0001286  77.6675 255.0502 15.43848611 59235
